FENGYUN 2G              
1 40367U 14090A   22177.78104017 -.00000292  00000+0  00000+0 0  9993
2 40367   1.9593  89.4013 0001453   9.8387 196.1473  1.00260203 27488
METEOSAT-11 (MSG-4)     
1 40732U 15034A   22177.25900657  .00000006  00000+0  00000+0 0  9996
2 40732   0.3053  57.9043 0001699  62.2148 247.6269  1.00278939 25467
ELEKTRO-L 2             
1 41105U 15074A   22177.03868767 -.00000111  00000+0  00000+0 0  9994
2 41105   3.0089  88.0379 0002035  47.0064 138.5281  1.00270967 23958
HIMAWARI-9              
1 41836U 16064A   22177.58746712 -.00000267  00000+0  00000+0 0  9992
2 41836   0.0016  22.7152 0000899 100.3661 143.8296  1.00273306 20639
GOES 16                 
1 41866U 16071A   22177.53102480 -.00000240  00000+0  00000+0 0  9997
2 41866   0.0615 241.9090 0000508 270.6428 238.0401  1.00271647 20554
FENGYUN 4A              
1 41882U 16077A   22177.60882844 -.00000322  00000+0  00000+0 0  9999
2 41882   0.0237 345.3266 0003441 147.0399 106.1407  1.00274486 20420
CYGFM05                 
1 41884U 16078A   22177.33018854  .00002106  00000+0  10740-3 0  9991
2 41884  34.9548 146.5456 0015108 174.2118 185.8770 15.16373797306138
CYGFM04                 
1 41885U 16078B   22177.57655158  .00002020  00000+0  10157-3 0  9999
2 41885  34.9482 134.1930 0013835 193.7766 166.2570 15.16903053306210
CYGFM02                 
1 41886U 16078C   22177.56708346  .00001831  00000+0  92127-4 0  9994
2 41886  34.9574 136.4623 0014462 187.5489 172.5007 15.16942278306292
CYGFM01                 
1 41887U 16078D   22177.33327181  .00002087  00000+0  10702-3 0  9996
2 41887  34.9514 148.9327 0015535 173.5280 186.5635 15.16182155306081
CYGFM08                 
1 41888U 16078E   22177.57832758  .00001822  00000+0  92462-4 0  9994
2 41888  34.9487 140.0142 0014958 187.6999 172.3485 15.16630777306253
CYGFM06                 
1 41889U 16078F   22177.28405644  .00002430  00000+0  12171-3 0  9997
2 41889  34.9568 136.9061 0013398 185.2907 174.7665 15.16957274306191
CYGFM07                 
1 41890U 16078G   22177.26880950  .00002544  00000+0  12755-3 0  9998
2 41890  34.9506 135.8396 0013266 189.5195 170.5267 15.16889877306177
CYGFM03                 
1 41891U 16078H   22177.26748910  .00002542  00000+0  12749-3 0  9999
2 41891  34.9537 136.3229 0012755 187.6510 172.4008 15.16882964306168
FENGYUN 3D              
1 43010U 17072A   22177.86995168  .00000069  00000+0  54044-4 0  9991
2 43010  98.8157 122.4223 0000970 199.7174 160.3967 14.19210700239100
NOAA 20                 
1 43013U 17073A   22177.80935233  .00000009  00000+0  24977-4 0  9992
2 43013  98.7169 116.2172 0001513  73.4441 286.6902 14.19558930238557
GOES 17                 
1 43226U 18022A   22177.56250266  .00000106  00000+0  00000+0 0  9996
2 43226   0.0826 253.0105 0000124 232.1195 214.8275  1.00272239 15866
FENGYUN 2H              
1 43491U 18050A   22177.49008580 -.00000123  00000+0  00000+0 0  9993
2 43491   1.1717  96.9873 0003999  35.7004  37.6874  1.00273495 14888
METOP-C                 
1 43689U 18087A   22177.80209369  .00000050  00000+0  42975-4 0  9995
2 43689  98.6833 237.6287 0003127  36.5230 323.6160 14.21491931188638
GEO-KOMPSAT-2A          
1 43823U 18100A   22177.78679657 -.00000335  00000+0  00000+0 0  9994
2 43823   0.0456 147.3714 0002231 299.0246 239.9878  1.00272742 13100
METEOR-M2 2             
1 44387U 19038A   22177.85036271  .00000016  00000+0  26243-4 0  9995
2 44387  98.7230 138.5539 0000277 189.2603 170.8573 14.23713042154745
FENGYUN 3E              
1 49008U 21062A   22177.88599943  .00000002  00000+0  21411-4 0  9990
2 49008  98.7099 179.6954 0001584   2.7690 357.3498 14.19733454 50654
GOES 18                 
1 51850U 22021A   22177.56417383  .00000104  00000+0  00000+0 0  9995
2 51850   0.0636 115.1360 0002571 107.3202 118.4994  1.00270954  1222
2022-058A               
1 52785U 22058A   22177.81619439  .00001615  00000+0  20689-3 0  9994
2 52785  49.9967 146.0037 0012256  19.1563 340.9839 14.86426994  3670
2022-058B               
1 52786U 22058B   22177.88154062  .00000663  00000+0  10024-3 0  9992
2 52786  50.0021 145.6899 0012155  22.2828 337.8642 14.86525164  3668
2022-058C               
1 52787U 22058C   22177.88019721  .00001656  00000+0  21058-3 0  9997
2 52787  49.9915 145.6587 0012783  22.4337 337.7158 14.86621431  3661
2022-058D               
1 52788U 22058D   22177.87774040  .00001628  00000+0  20667-3 0  9993
2 52788  50.0065 145.6770 0013006  25.1154 335.0416 14.86770460  3666
2022-058E               
1 52789U 22058E   22177.87567352  .00000843  00000+0  11939-3 0  9990
2 52789  49.9904 145.6271 0014112  25.7047 334.4591 14.86877112  3667
2022-058F               
1 52790U 22058F   22177.87126235  .00001227  00000+0  16083-3 0  9995
2 52790  50.0078 145.6383 0014262  30.5809 329.5988 14.87149726  3663
2022-058G               
1 52791U 22058G   22177.86883089  .00001680  00000+0  20978-3 0  9993
2 52791  49.9917 145.5865 0015332  31.6022 328.5833 14.87306585  3661
2022-058H               
1 52792U 22058H   22177.86539963  .00000967  00000+0  13118-3 0  9998
2 52792  49.9963 145.5750 0016201  33.0832 327.1123 14.87501578  3663
2022-058J               
1 52793U 22058J   22177.86333669  .00001331  00000+0  17035-3 0  9992
2 52793  50.0014 145.5727 0016410  35.0567 325.1476 14.87627782  3695
CZ-2C R/B               
1 52794U 22058K   22177.61703632  .00002047  00000+0  12490-3 0  9992
2 52794  50.1766 143.2481 0103704 136.6907 224.2209 15.10833385  3678
PROGRESS-MS 20          
1 52795U 22059A   22177.48556043  .00004792  00000+0  92857-4 0  9996
2 52795  51.6408 290.5389 0004209 292.6783 162.0142 15.49692718346621
SHENZHOU 14             
1 52797U 22060A   22177.34460465  .00011910  00000+0  14403-3 0  9997
2 52797  41.4702 163.2352 0003584 330.1935  11.5182 15.60536804 66194
NILESAT 301             
1 52817U 22061A   22177.60396741 -.00000075  00000+0  00000+0 0  9990
2 52817   0.0289 322.3552 0000585 259.9974 259.5200  1.00272737   191
FALCON 9 R/B            
1 52818U 22061B   22176.61355615  .00000678  00000+0  88587-3 0  9994
2 52818  18.7030  40.5606 7695538 187.6361 143.1880  1.75869347   297
STARLINK-4091           
1 52830U 22062A   22177.58335648 -.00779085  00000+0 -36764-2 0  9996
2 52830  53.2176   0.3214 0010634  57.1211 267.1735 15.84096117  1302
STARLINK-4089           
1 52831U 22062B   22177.58335648 -.00779374  00000+0 -36829-2 0  9990
2 52831  53.2176   0.3244 0010803  56.8314 266.4573 15.84063767  1301
STARLINK-4083           
1 52832U 22062C   22177.58335648 -.00779291  00000+0 -36834-2 0  9995
2 52832  53.2176   0.3229 0010164  56.0510 267.5976 15.84073644  1309
STARLINK-4086           
1 52833U 22062D   22177.58335648 -.00779103  00000+0 -36796-2 0  9995
2 52833  53.2176   0.3229 0010352  56.1880 267.7741 15.84085241  1308
STARLINK-4108           
1 52834U 22062E   22177.58335648 -.00778953  00000+0 -36747-2 0  9994
2 52834  53.2176   0.3210 0010413  56.4068 268.2175 15.84107118  1303
STARLINK-4080           
1 52835U 22062F   22177.58335648 -.00779050  00000+0 -36719-2 0  9993
2 52835  53.2176   0.3211 0010732  57.0165 267.9382 15.84118179  1309
STARLINK-4043           
1 52836U 22062G   22177.58335648 -.00779009  00000+0 -36721-2 0  9991
2 52836  53.2176   0.3196 0010195  56.7267 268.5760 15.84128523  1305
STARLINK-4036           
1 52837U 22062H   22177.58335648 -.00778557  00000+0 -36657-2 0  9997
2 52837  53.2176   0.3183 0009771  55.3089 270.9836 15.84161301  1309
STARLINK-4092           
1 52838U 22062J   22177.58335648 -.00778965  00000+0 -36670-2 0  9996
2 52838  53.2176   0.3191 0010881  57.8446 267.7773 15.84139809  1309
STARLINK-4048           
1 52839U 22062K   22177.58335648 -.00778228  00000+0 -36592-2 0  9992
2 52839  53.2176   0.3169 0010009  55.6943 271.2526 15.84183189  1301
STARLINK-4049           
1 52840U 22062L   22177.58335648 -.00778274  00000+0 -36622-2 0  9999
2 52840  53.2176   0.3173 0009793  55.5880 271.0257 15.84172411  1300
STARLINK-4065           
1 52841U 22062M   22177.58335648 -.00778306  00000+0 -36515-2 0  9997
2 52841  53.2176   0.3151 0010562  56.6601 271.2716 15.84216222  1307
STARLINK-4046           
1 52842U 22062N   22177.58335648 -.00778651  00000+0 -36685-2 0  9999
2 52842  53.2176   0.3185 0009675  55.3635 270.6005 15.84150325  1306
STARLINK-4188           
1 52843U 22062P   22177.58335648 -.00777908  00000+0 -36456-2 0  9990
2 52843  53.2176   0.3137 0010502  56.6250 271.9213 15.84239651  1307
STARLINK-4208           
1 52844U 22062Q   22177.58335648 -.00778398  00000+0 -36549-2 0  9998
2 52844  53.2176   0.3160 0010758  56.9128 270.3458 15.84194904  1309
STARLINK-4168           
1 52845U 22062R   22177.58335648 -.00778148  00000+0 -36436-2 0  9997
2 52845  53.2176   0.3133 0010816  57.1250 271.7577 15.84250436  1304
STARLINK-4212           
1 52846U 22062S   22177.58335648 -.00777922  00000+0 -36490-2 0  9997
2 52846  53.2176   0.3144 0010175  55.6883 272.5384 15.84228372  1309
STARLINK-4206           
1 52847U 22062T   22177.58335648 -.00777789  00000+0 -36393-2 0  9991
2 52847  53.2176   0.3120 0010482  56.4285 273.1016 15.84272508  1309
STARLINK-4202           
1 52848U 22062U   22177.58335648 -.00778416  00000+0 -36533-2 0  9996
2 52848  53.2176   0.3155 0010675  56.8947 270.6792 15.84206491  1302
STARLINK-4197           
1 52849U 22062V   22177.58335648 -.00777577  00000+0 -36334-2 0  9993
2 52849  53.2177   0.3108 0010739  57.1901 273.0048 15.84293845  1307
STARLINK-4187           
1 52850U 22062W   22177.58335648 -.00777886  00000+0 -36395-2 0  9995
2 52850  53.2176   0.3124 0011005  57.2528 271.9474 15.84261594  1305
STARLINK-3809           
1 52851U 22062X   22177.58335648 -.00777305  00000+0 -36326-2 0  9996
2 52851  53.2176   0.3103 0010139  55.2238 275.2996 15.84304680  1306
